norad_id,name,regime,epoch,line1,line2,inclination,eccentricity,mean_motion,raan,arg_pericenter,mean_anomaly
40349,O3B FM11,MEO,16364.26513543,1 40349U 14083B   16364.26513543 -.00000018  00000-0  00000+0 0  1659\,2 40349   0.0335  11.1721 0002451 252.1493  96.6513  5.00115825 37113,0.0335,0.0002451,5.00115825,11.1721,252.1493,96.6513
40349,O3B FM11,MEO,16366.86371167,1 40349U 14083B   16366.86371167 -.00000015 +00000-0 +00000-0 0 0001\,2 40349 000.0336 011.4132 0002432 255.2701 093.2892 05.0011579703724,0.0336,0.0002432,5.00115797,11.4132,255.2701,93.2892
40349,O3B FM11,MEO,17001.86315270,1 40349U 14083B   17001.86315270 -.00000014 +00000-0 +00000-0 0 0001\,2 40349 000.0336 011.4181 0002423 256.1816 092.3726 05.0011577103729,0.0336,0.0002423,5.00115771,11.4181,256.1816,92.3726
40349,O3B FM11,MEO,17003.66216753,1 40349U 14083B   17003.66216753 -.00000013  00000-0  00000+0 0  1663\,2 40349   0.0337  11.4726 0002412 257.3403  91.1593  5.00115712 37380,0.0337,0.0002412,5.00115712,11.4726,257.3403,91.1593
40349,O3B FM11,MEO,17005.86096249,1 40349U 14083B   17005.86096249 -.00000014 +00000-0 +00000-0 0 0001\,2 40349 000.0338 011.5713 0002413 258.5697 089.8307 05.0011571603749,0.0338,0.0002413,5.00115716,11.5713,258.5697,89.8307
40349,O3B FM11,MEO,17007.65997666,1 40349U 14083B   17007.65997666 -.00000016 +00000-0 +00000-0 0 0001\,2 40349 000.0339 011.6547 0002403 260.5610 087.7554 05.0011571103758,0.0339,0.0002403,5.00115711,11.6547,260.561,87.7554
40349,O3B FM11,MEO,17008.45953834,1 40349U 14083B   17008.45953834 -.00000018  00000-0  00000+0 0  1679\,2 40349   0.0339  11.7033 0002407 261.0803  87.1870  5.00115715 37629,0.0339,0.0002407,5.00115715,11.7033,261.0803,87.187
40349,O3B FM11,MEO,17009.45899071,1 40349U 14083B   17009.45899071 -.00000020 +00000-0 +00000-0 0 0001\,2 40349 000.0340 011.7556 0002399 262.2061 086.0083 05.0011570603767,0.034,0.0002399,5.00115706,11.7556,262.2061,86.0083
40349,O3B FM11,MEO,17010.85822377,1 40349U 14083B   17010.85822377 -.00000023 +00000-0 +00000-0 0 0001\,2 40349 000.0341 011.8240 0002400 263.3698 084.7753 05.0011570803774,0.0341,0.00024,5.00115708,11.824,263.3698,84.7753
40349,O3B FM11,MEO,17011.85767611,1 40349U 14083B   17011.85767611 -.00000025 +00000-0 +00000-0 0 0001\,2 40349 000.0341 011.8483 0002393 264.6214 083.4989 05.0011570803779,0.0341,0.0002393,5.00115708,11.8483,264.6214,83.4989
40349,O3B FM11,MEO,17012.45734774,1 40349U 14083B   17012.45734774 -.00000026 +00000-0 +00000-0 0 0001\,2 40349 000.0342 011.8583 0002373 265.7535 082.3568 05.0011571003782,0.0342,0.0002373,5.0011571,11.8583,265.7535,82.3568
40349,O3B FM11,MEO,17013.65669048,1 40349U 14083B   17013.65669048 -.00000028  00000-0  00000+0 0  1680\,2 40349   0.0343  11.8925 0002366 267.1159  80.9597  5.00115736 37888,0.0343,0.0002366,5.00115736,11.8925,267.1159,80.9597
40349,O3B FM11,MEO,17014.45625260,1 40349U 14083B   17014.45625260 -.00000029 +00000-0 +00000-0 0 0001\,2 40349 000.0343 011.9402 0002360 267.9803 080.0475 05.0011573603792,0.0343,0.000236,5.00115736,11.9402,267.9803,80.0475
40349,O3B FM11,MEO,17015.45570540,1 40349U 14083B   17015.45570540 -.00000029 +00000-0 +00000-0 0 0001\,2 40349 000.0344 011.9823 0002353 269.1895 078.7965 05.0011573403797,0.0344,0.0002353,5.00115734,11.9823,269.1895,78.7965
40349,O3B FM11,MEO,17016.45515804,1 40349U 14083B   17016.45515804 -.00000029 +00000-0 +00000-0 0 0001\,2 40349 000.0345 011.9971 0002346 270.2752 077.6961 05.0011575103802,0.0345,0.0002346,5.00115751,11.9971,270.2752,77.6961
40349,O3B FM11,MEO,17018.05428200,1 40349U 14083B   17018.05428200 -.00000028  00000-0  00000+0 0  1693\,2 40349   0.0346  12.0176 0002337 271.9339  76.0176  5.00115805 38105,0.0346,0.0002337,5.00115805,12.0176,271.9339,76.0176
40349,O3B FM11,MEO,17018.45406292,1 40349U 14083B   17018.45406292 -.00000028 +00000-0 +00000-0 0 0001\,2 40349 000.0346 012.0553 0002335 272.1788 075.7351 05.0011582303812,0.0346,0.0002335,5.00115823,12.0553,272.1788,75.7351
40349,O3B FM11,MEO,17019.25362507,1 40349U 14083B   17019.25362507 -.00000027 +00000-0 +00000-0 0 0001\,2 40349 000.0347 012.0264 0002331 272.9591 074.9840 05.0011583403816,0.0347,0.0002331,5.00115834,12.0264,272.9591,74.984
40349,O3B FM11,MEO,17020.45296859,1 40349U 14083B   17020.45296859 -.00000026 +00000-0 +00000-0 0 0001\,2 40349 000.0348 012.0699 0002331 273.6500 074.2500 05.0011581803822,0.0348,0.0002331,5.00115818,12.0699,273.65,74.25
40349,O3B FM11,MEO,17021.25253070,1 40349U 14083B   17021.25253070 -.00000025 +00000-0 +00000-0 0 0001\,2 40349 000.0349 012.0640 0002326 274.4539 073.4524 05.0011582903826,0.0349,0.0002326,5.00115829,12.064,274.4539,73.4524
40349,O3B FM11,MEO,17023.45132665,1 40349U 14083B   17023.45132665 -.00000023 +00000-0 +00000-0 0 0001\,2 40349 000.0351 012.1461 0002316 276.4983 071.3267 05.0011582303837,0.0351,0.0002316,5.00115823,12.1461,276.4983,71.3267
40349,O3B FM11,MEO,17024.45077930,1 40349U 14083B   17024.45077930 -.00000022 +00000-0 +00000-0 0 0001\,2 40349 000.0352 012.1417 0002308 277.4699 070.3598 05.0011581803842,0.0352,0.0002308,5.00115818,12.1417,277.4699,70.3598
40349,O3B FM11,MEO,17025.45023198,1 40349U 14083B   17025.45023198 -.00000021 +00000-0 +00000-0 0 0001\,2 40349 000.0353 012.1237 0002300 278.5820 069.2660 05.0011580803847,0.0353,0.00023,5.00115808,12.1237,278.582,69.266
40349,O3B FM11,MEO,17026.44968473,1 40349U 14083B   17026.44968473 -.00000020 +00000-0 +00000-0 0 0001\,2 40349 000.0354 012.1595 0002292 279.6985 068.1140 05.0011578803852,0.0354,0.0002292,5.00115788,12.1595,279.6985,68.114
40349,O3B FM11,MEO,17027.44913708,1 40349U 14083B   17027.44913708 -.00000019 +00000-0 +00000-0 0 0001\,2 40349 000.0355 012.2017 0002291 280.4734 067.2969 05.0011579103857,0.0355,0.0002291,5.00115791,12.2017,280.4734,67.2969
40349,O3B FM11,MEO,17028.24869910,1 40349U 14083B   17028.24869910 -.00000018  00000-0  00000+0 0  1714\,2 40349   0.0356  12.1557 0002285 281.4134  66.4033  5.00115788 38612,0.0356,0.0002285,5.00115788,12.1557,281.4134,66.4033
40349,O3B FM11,MEO,17028.44858941,1 40349U 14083B   17028.44858941 -.00000018 +00000-0 +00000-0 0 0001\,2 40349 000.0356 012.2228 0002290 281.2330 066.5164 05.0011579303862,0.0356,0.000229,5.00115793,12.2228,281.233,66.5164
40349,O3B FM11,MEO,17029.64793269,1 40349U 14083B   17029.64793269 -.00000017 +00000-0 +00000-0 0 0001\,2 40349 000.0356 012.2287 0002287 282.4495 065.2942 05.0011576303867,0.0356,0.0002287,5.00115763,12.2287,282.4495,65.2942
40349,O3B FM11,MEO,17030.44749482,1 40349U 14083B   17030.44749482 -.00000016 +00000-0 +00000-0 0 0001\,2 40349 000.0357 012.2709 0002285 283.1840 064.5177 05.0011574803872,0.0357,0.0002285,5.00115748,12.2709,283.184,64.5177
40349,O3B FM11,MEO,17031.64683793,1 40349U 14083B   17031.64683793 -.00000016 +00000-0 +00000-0 0 0001\,2 40349 000.0358 012.3092 0002287 284.0962 063.5674 05.0011572703878,0.0358,0.0002287,5.00115727,12.3092,284.0962,63.5674
40349,O3B FM11,MEO,17032.44639999,1 40349U 14083B   17032.44639999 -.00000016  00000-0  00000+0 0  1722\,2 40349   0.0359  12.3349 0002283 285.0022  62.6358  5.00115723 38820,0.0359,0.0002283,5.00115723,12.3349,285.0022,62.6358
40349,O3B FM11,MEO,17033.24596219,1 40349U 14083B   17033.24596219 -.00000017 +00000-0 +00000-0 0 0001\,2 40349 000.0360 012.2904 0002279 286.0522 061.6304 05.0011571103886,0.036,0.0002279,5.00115711,12.2904,286.0522,61.6304
40349,O3B FM11,MEO,17035.44475780,1 40349U 14083B   17035.44475780 -.00000020 +00000-0 +00000-0 0 0001\,2 40349 000.0362 012.3363 0002268 288.2937 059.3429 05.0011569703897,0.0362,0.0002268,5.00115697,12.3363,288.2937,59.3429
40349,O3B FM11,MEO,17036.44421017,1 40349U 14083B   17036.44421017 -.00000022 +00000-0 +00000-0 0 0001\,2 40349 000.0364 012.3649 0002264 289.1862 058.4215 05.0011570003902,0.0364,0.0002264,5.001157,12.3649,289.1862,58.4215
40349,O3B FM11,MEO,17037.24377200,1 40349U 14083B   17037.24377200 -.00000024 +00000-0 +00000-0 0 0173\,2 40349 000.0364 012.3577 0002262 289.8995 057.7152 05.0011570803906,0.0364,0.0002262,5.00115708,12.3577,289.8995,57.7152
40349,O3B FM11,MEO,17038.44311504,1 40349U 14083B   17038.44311504 -.00000027 +00000-0 +00000-0 0 0001\,2 40349 000.0366 012.4332 0002254 291.1950 056.3438 05.0011570203912,0.0366,0.0002254,5.00115702,12.4332,291.195,56.3438
40349,O3B FM11,MEO,17040.24212924,1 40349U 14083B   17040.24212924 -.00000030 +00000-0 +00000-0 0 0001\,2 40349 000.0368 012.4661 0002245 293.0317 054.4739 05.0011573603921,0.0368,0.0002245,5.00115736,12.4661,293.0317,54.4739
40349,O3B FM11,MEO,17041.24158179,1 40349U 14083B   17041.24158179 -.00000031 +00000-0 +00000-0 0 0001\,2 40349 000.0369 012.5230 0002241 293.9928 053.4560 05.0011574803926,0.0369,0.0002241,5.00115748,12.523,293.9928,53.456
40349,O3B FM11,MEO,17043.24048702,1 40349U 14083B   17043.24048702 -.00000032  00000-0  00000+0 0  1748\,2 40349   0.0371  12.5785 0002233 295.8310  51.5628  5.00115785 39369,0.0371,0.0002233,5.00115785,12.5785,295.831,51.5628
40349,O3B FM11,MEO,17044.43983073,1 40349U 14083B   17044.43983073 -.00000032 +00000-0 +00000-0 0 0001\,2 40349 000.0372 012.5788 0002221 297.4987 049.8957 05.0011578603942,0.0372,0.0002221,5.00115786,12.5788,297.4987,49.8957
40349,O3B FM11,MEO,17045.43928374,1 40349U 14083B   17045.43928374 -.00000032 +00000-0 +00000-0 0 0001\,2 40349 000.0373 012.5828 0002217 298.5042 048.8869 05.0011578903947,0.0373,0.0002217,5.00115789,12.5828,298.5042,48.8869
40349,O3B FM11,MEO,17046.43873685,1 40349U 14083B   17046.43873685 -.00000031 +00000-0 +00000-0 0 0001\,2 40349 000.0374 012.5550 0002214 299.3746 048.0450 05.0011577903952,0.0374,0.0002214,5.00115779,12.555,299.3746,48.045
40349,O3B FM11,MEO,17047.83797094,1 40349U 14083B   17047.83797094 -.00000030 +00000-0 +00000-0 0 0001\,2 40349 000.0376 012.5544 0002198 301.4346 045.9870 05.0011580803959,0.0376,0.0002198,5.00115808,12.5544,301.4346,45.987
